{"fetched_at":"2026-03-29T16:36:15Z","count":15609,"tles":[{"name":"STARLINK-32691","line1":"1 62501U 25003Q   26087.72796025  .00017855  00000+0  65629-3 0  9991","line2":"2 62501  42.9998 181.4122 0001620 284.2243  75.8428 15.27605522 69576","category":"Starlink"}]}